[{"OBJECT_NAME":"NINGXIA-1 1","OBJECT_ID":"2019-076A","EPOCH":"2026-03-09T23:45:52.530912","MEAN_MOTION":14.02025027,"ECCENTRICITY":0.00109317,"INCLINATION":45.0057,"RA_OF_ASC_NODE":263.1421,"ARG_OF_PERICENTER":45.9238,"MEAN_ANOMALY":314.2494,"EPHEMERIS_TYPE":0,"CLASSIFICATION_TYPE":"U","NORAD_CAT_ID":44779,"ELEMENT_SET_NO":999,"REV_AT_EPOCH":32393,"BSTAR":9.6328735e-5,"MEAN_MOTION_DOT":1.8e-7,"MEAN_MOTION_DDOT":0},{"OBJECT_NAME":"METEOR 1-21","OBJECT_ID":"1975-023A","EPOCH":"2026-03-09T20:40:17.549472","MEAN_MOTION":14.08463161,"ECCENTRICITY":0.00280882,"INCLINATION":81.1954,"RA_OF_ASC_NODE":326.5127,"ARG_OF_PERICENTER":270.907,"MEAN_ANOMALY":88.8881,"EPHEMERIS_TYPE":0,"CLASSIFICATION_TYPE":"U","NORAD_CAT_ID":7714,"ELEMENT_SET_NO":999,"REV_AT_EPOCH":93355,"BSTAR":4.287383e-5,"MEAN_MOTION_DOT":8.6e-7,"MEAN_MOTION_DDOT":0}]
